NORAD_CAT_ID,OBJECT_NAME,OBJECT_TYPE,EPOCH,MEAN_MOTION,ECCENTRICITY,INCLINATION,RA_OF_ASC_NODE,ARG_OF_PERICENTER,MEAN_ANOMALY,BSTAR,MEAN_MOTION_DOT,MEAN_MOTION_DDOT,TLE_LINE0,TLE_LINE1,TLE_LINE2,SEMIMAJOR_AXIS,PERIOD,APOGEE,PERIGEE,DECAYED
52853.0,STARLINK-4189,PAYLOAD,2023-02-23 17:03:46,15.08851376,0.0001355,53.2172,327.0135,62.5325,297.5805,0.0011805,0.00018555,0.0,0 STARLINK-4189,1 52853U 22062Z   23054.71095349  .00018555  00000-0  11805-2 0  9998,2 52853  53.2172 327.0135 0001355  62.5325 297.5805 15.08851376 38352,6917.846,95.437,540.648,538.773,0.0
52853.0,STARLINK-4189,PAYLOAD,2023-02-23 23:25:18,15.08877671,0.0001377,53.2169,325.8272,72.9225,287.1918,0.0016797,0.00026573,0.0,0 STARLINK-4189,1 52853U 22062Z   23054.97590595  .00026573  00000-0  16797-2 0  9993,2 52853  53.2169 325.8272 0001377  72.9225 287.1918 15.08877671 38888,6917.765,95.435,540.583,538.678,0.0
52853.0,STARLINK-4189,PAYLOAD,2023-02-24 16:54:32,15.08856618,0.0001653,53.2164,322.5569,56.6446,303.4704,0.0009045,0.00014143,0.0,0 STARLINK-4189,1 52853U 22062Z   23055.70454532  .00014143  00000-0  90450-3 0  9994,2 52853  53.2164 322.5569 0001653  56.6446 303.4704 15.08856618 38992,6917.83,95.437,540.838,538.551,0.0
52853.0,STARLINK-4189,PAYLOAD,2023-02-24 23:16:05,15.08839559,0.0001353,53.214,321.3601,97.1062,263.0084,0.00033261,5.009e-05,0.0,0 STARLINK-4189,1 52853U 22062Z   23055.96950531  .00005009  00000-0  33261-3 0  9990,2 52853  53.2140 321.3601 0001353  97.1062 263.0084 15.08839559 39034,6917.882,95.438,540.683,538.811,0.0
52853.0,STARLINK-4189,PAYLOAD,2023-02-25 04:02:14,15.08843208,0.0001155,53.2155,320.4723,86.4888,273.6236,0.0009848,0.00015421,0.0,0 STARLINK-4189,1 52853U 22062Z   23056.16822620  .00015421  00000-0  98480-3 0  9993,2 52853  53.2155 320.4723 0001155  86.4888 273.6236 15.08843208 38572,6917.871,95.437,540.535,538.937,0.0
52853.0,STARLINK-4189,PAYLOAD,2023-02-26 02:17:39,15.08858111,0.0001222,53.2153,316.3078,79.1167,280.9962,0.0015376,0.0002428,0.0,0 STARLINK-4189,1 52853U 22062Z   23057.09559158  .00024280  00000-0  15376-2 0  9994,2 52853  53.2153 316.3078 0001222  79.1167 280.9962 15.08858111 39208,6917.825,95.436,540.535,538.845,0.0
52853.0,STARLINK-4189,PAYLOAD,2023-02-26 16:36:07,15.08858016,0.0001545,53.2143,313.6326,81.6071,278.5096,0.0010342,0.00016218,0.0,0 STARLINK-4189,1 52853U 22062Z   23057.69175007  .00016218  00000-0  10342-2 0  9997,2 52853  53.2143 313.6326 0001545  81.6071 278.5096 15.08858016 39297,6917.825,95.436,540.759,538.622,0.0
52853.0,STARLINK-4189,PAYLOAD,2023-02-27 02:08:25,15.08871668,0.000124,53.2153,311.8484,94.0053,266.1081,0.0013053,0.00020565,0.0,0 STARLINK-4189,1 52853U 22062Z   23058.08918178  .00020565  00000-0  13053-2 0  9997,2 52853  53.2153 311.8484 0001240  94.0053 266.1081 15.08871668 38860,6917.784,95.436,540.506,538.791,0.0
52853.0,STARLINK-4189,PAYLOAD,2023-02-27 16:26:53,15.08886008,0.0001046,53.2159,309.1691,110.4733,249.6372,0.0024737,0.00039351,0.0,0 STARLINK-4189,1 52853U 22062Z   23058.68534463  .00039351  00000-0  24737-2 0  9998,2 52853  53.2159 309.1691 0001046 110.4733 249.6372 15.08886008 39446,6917.74,95.435,540.328,538.881,0.0
52853.0,STARLINK-4189,PAYLOAD,2023-02-28 22:39:15,15.08835756,0.0001355,53.215,303.5211,77.5653,282.549,0.0011106,0.00017429,0.0,0 STARLINK-4189,1 52853U 22062Z   23059.94393514  .00017429  00000-0  11106-2 0  9996,2 52853  53.2150 303.5211 0001355  77.5653 282.5490 15.08835756 39148,6917.893,95.438,540.696,538.821,0.0
52853.0,STARLINK-4189,PAYLOAD,2023-03-01 22:30:02,15.08866819,0.0001343,53.2153,299.0605,70.0495,290.0642,0.00090249,0.00014115,0.0,0 STARLINK-4189,1 52853U 22062Z   23060.93752500  .00014115  00000-0  90249-3 0  9996,2 52853  53.2153 299.0605 0001343  70.0495 290.0642 15.08866819 39299,6917.798,95.436,540.592,538.734,0.0
52853.0,STARLINK-4189,PAYLOAD,2023-03-02 01:40:48,15.08874339,0.0001381,53.2152,298.4657,69.4394,290.6746,0.0010375,0.00016278,0.0,0 STARLINK-4189,1 52853U 22062Z   23061.07000157  .00016278  00000-0  10375-2 0  9999,2 52853  53.2152 298.4657 0001381  69.4394 290.6746 15.08874339 39804,6917.775,95.435,540.596,538.685,0.0
52853.0,STARLINK-4189,PAYLOAD,2023-03-02 19:10:02,15.08864766,0.0001184,53.2146,295.1957,72.195,287.9172,0.00059045,9.128e-05,0.0,0 STARLINK-4189,1 52853U 22062Z   23061.79863646  .00009128  00000-0  59045-3 0  9992,2 52853  53.2146 295.1957 0001184  72.1950 287.9172 15.08864766 39427,6917.805,95.436,540.489,538.851,0.0
52853.0,STARLINK-4189,PAYLOAD,2023-03-02 22:20:48,15.08867399,0.0001008,53.215,294.6014,68.4744,291.6355,0.0015632,0.00024697,0.0,0 STARLINK-4189,1 52853U 22062Z   23061.93111536  .00024697  00000-0  15632-2 0  9993,2 52853  53.2150 294.6014 0001008  68.4744 291.6355 15.08867399 39930,6917.797,95.436,540.359,538.964,0.0
52853.0,STARLINK-4189,PAYLOAD,2023-03-03 22:11:34,15.08864606,9.07e-05,53.2153,290.1403,77.7073,282.4021,0.0020484,0.00032485,0.0,0 STARLINK-4189,1 52853U 22062Z   23062.92470952  .00032485  00000-0  20484-2 0  9998,2 52853  53.2153 290.1403 0000907  77.7073 282.4021 15.08864606 40085,6917.805,95.436,540.298,539.043,0.0
52853.0,STARLINK-4189,PAYLOAD,2023-03-04 22:02:22,15.08851528,7.61e-05,53.2151,285.6802,115.7953,244.3118,0.0018556,0.00029377,0.0,0 STARLINK-4189,1 52853U 22062Z   23063.91831841  .00029377  00000-0  18556-2 0  9999,2 52853  53.2151 285.6802 0000761 115.7953 244.3118 15.08851528 40233,6917.845,95.437,540.237,539.184,0.0
52853.0,STARLINK-4189,PAYLOAD,2023-03-05 01:13:08,15.0884046,7.07e-05,53.2149,285.0834,92.506,267.6013,0.0011073,0.00017379,0.0,0 STARLINK-4189,1 52853U 22062Z   23064.05079831  .00017379  00000-0  11073-2 0  9994,2 52853  53.2149 285.0834 0000707  92.5060 267.6013 15.08840460 40257,6917.879,95.438,540.233,539.255,0.0
52853.0,STARLINK-4189,PAYLOAD,2023-03-05 21:53:09,15.08867926,7.65e-05,53.2144,281.2166,93.902,266.2059,0.0014893,0.00023512,0.0,0 STARLINK-4189,1 52853U 22062Z   23064.91191298  .00023512  00000-0  14893-2 0  9990,2 52853  53.2144 281.2166 0000765  93.9020 266.2059 15.08867926 39892,6917.795,95.436,540.189,539.131,0.0
52853.0,STARLINK-4189,PAYLOAD,2023-03-06 02:39:18,15.08898866,7.4e-05,53.2137,280.3265,77.8793,282.2282,0.0025316,0.00040298,0.0,0 STARLINK-4189,1 52853U 22062Z   23065.11062589  .00040298  00000-0  25316-2 0  9995,2 52853  53.2137 280.3265 0000740  77.8793 282.2282 15.08898866 40418,6917.7,95.434,540.077,539.054,0.0
52853.0,STARLINK-4189,PAYLOAD,2023-03-06 20:08:33,15.08842279,7.82e-05,53.2136,277.0548,90.9933,269.1149,0.0011555,0.00018151,0.0,0 STARLINK-4189,1 52853U 22062Z   23065.83927419  .00018151  00000-0  11555-2 0  9999,2 52853  53.2136 277.0548 0000782  90.9933 269.1149 15.08842279 40527,6917.873,95.437,540.279,539.197,0.0
52853.0,STARLINK-4189,PAYLOAD,2023-03-07 19:59:20,15.08861654,0.0001596,53.2142,272.5925,99.0155,261.1018,0.0016738,0.00026467,0.0,0 STARLINK-4189,1 52853U 22062Z   23066.83287652  .00026467  00000-0  16738-2 0  9995,2 52853  53.2142 272.5925 0001596  99.0155 261.1018 15.08861654 40674,6917.814,95.436,540.783,538.575,0.0
52853.0,STARLINK-4189,PAYLOAD,2023-03-08 19:50:08,15.08858576,7.02e-05,53.2138,268.1343,53.8271,306.2786,0.0020182,0.00031994,0.0,0 STARLINK-4189,1 52853U 22062Z   23067.82648398  .00031994  00000-0  20182-2 0  9992,2 52853  53.2138 268.1343 0000702  53.8271 306.2786 15.08858576 40334,6917.824,95.436,540.174,539.203,0.0
52853.0,STARLINK-4189,PAYLOAD,2023-03-08 23:00:54,15.08866052,8.08e-05,53.2141,267.5397,57.2802,302.8268,0.0025713,0.00040901,0.0,0 STARLINK-4189,1 52853U 22062Z   23067.95896440  .00040901  00000-0  25713-2 0  9992,2 52853  53.2141 267.5397 0000808  57.2802 302.8268 15.08866052 40846,6917.801,95.436,540.225,539.107,0.0
52853.0,STARLINK-4189,PAYLOAD,2023-03-09 19:40:54,15.0885706,8.53e-05,53.2138,263.6729,66.5494,293.5587,0.00086566,0.00013522,0.0,0 STARLINK-4189,1 52853U 22062Z   23068.82007973  .00013522  00000-0  86566-3 0  9997,2 52853  53.2138 263.6729 0000853  66.5494 293.5587 15.08857060 40971,6917.828,95.436,540.283,539.103,0.0
52853.0,STARLINK-4189,PAYLOAD,2023-03-10 19:31:42,15.08846189,7.43e-05,53.2131,259.21,67.2919,292.8151,0.00048062,7.371e-05,0.0,0 STARLINK-4189,1 52853U 22062Z   23069.81368378  .00007371  00000-0  48062-3 0  9990,2 52853  53.2131 259.2100 0000743  67.2919 292.8151 15.08846189 41123,6917.861,95.437,540.24,539.212,0.0
52853.0,STARLINK-4189,PAYLOAD,2023-03-11 11:25:33,15.08840876,9.74e-05,53.213,256.2396,95.9019,264.2084,0.00031466,4.724e-05,0.0,0 STARLINK-4189,1 52853U 22062Z   23070.47608557  .00004724  00000-0  31466-3 0  9999,2 52853  53.2130 256.2396 0000974  95.9019 264.2084 15.08840876 41227,6917.878,95.437,540.417,539.069,0.0
52853.0,STARLINK-4189,PAYLOAD,2023-03-11 13:00:57,15.08835442,0.0001062,53.2137,255.9412,90.4537,269.6577,2.0017e-05,3.1e-07,0.0,0 STARLINK-4189,1 52853U 22062Z   23070.54232712  .00000031  00000-0  20017-4 0  9991,2 52853  53.2137 255.9412 0001062  90.4537 269.6577 15.08835442 40748,6917.894,95.438,540.494,539.025,0.0
52853.0,STARLINK-4189,PAYLOAD,2023-03-11 16:11:43,15.08839683,0.0001179,53.2155,255.3462,98.166,261.9465,8.2144e-05,1.02e-05,0.0,0 STARLINK-4189,1 52853U 22062Z   23070.67480487  .00001020  00000-0  82144-4 0  9997,2 52853  53.2155 255.3462 0001179  98.1660 261.9465 15.08839683 40762,6917.881,95.438,540.562,538.931,0.0
52853.0,STARLINK-4189,PAYLOAD,2023-03-12 12:51:44,15.08838478,9.65e-05,53.2159,251.4803,97.8907,262.2195,4.8448e-05,4.83e-06,0.0,0 STARLINK-4189,1 52853U 22062Z   23071.53592749  .00000483  00000-0  48448-4 0  9999,2 52853  53.2159 251.4803 0000965  97.8907 262.2195 15.08838478 41388,6917.885,95.438,540.418,539.082,0.0
52853.0,STARLINK-4189,PAYLOAD,2023-03-12 20:48:39,15.08840845,0.0001068,53.2155,249.9932,99.7132,260.398,0.00010083,1.317e-05,0.0,0 STARLINK-4189,1 52853U 22062Z   23071.86712707  .00001317  00000-0  10083-3 0  9993,2 52853  53.2155 249.9932 0001068  99.7132 260.3980 15.08840845 40948,6917.878,95.438,540.482,539.004,0.0
